{
  "type": "FeatureCollection",
  "features": [
    {
      "type": "Feature",
      "properties": {
        "norad_id": 66661,
        "name": "SNUGLITE-III",
        "group": "last-30-days",
        "lat": -58.06276573240917,
        "lon": -64.0847167829739,
        "alt_km": 589.8043450266068,
        "timestamp": "2025-12-22T05:49:02.184788+00:00",
        "meta_object_name": "SNUGLITE-III",
        "meta_object_id": "2025-274M",
        "meta_epoch": "2025-12-21T17:12:49.999968",
        "meta_mean_motion": 14.93139357,
        "meta_eccentricity": 0.0013285,
        "meta_inclination": 97.7404,
        "meta_ra_of_asc_node": 282.7951,
        "meta_arg_of_pericenter": 249.0325,
        "meta_mean_anomaly": 110.9473,
        "meta_ephemeris_type": 0,
        "meta_classification_type": "U",
        "meta_norad_cat_id": 66661,
        "meta_element_set_no": 999,
        "meta_rev_at_epoch": 374,
        "meta_bstar": 0.00016291,
        "meta_mean_motion_dot": 1.645e-05,
        "meta_mean_motion_ddot": 0,
        "tle_line1": "1 66661U 25274M   25355.71724537  .00001645  00000+0  16291-3 0  9998",
        "tle_line2": "2 66661  97.7404 282.7951 0013285 249.0325 110.9473 14.93139357  3740"
      },
      "geometry": {
        "type": "Point",
        "coordinates": [
          -64.0847167829739,
          -58.06276573240917
        ]
      }
    },
    {
      "type": "Feature",
      "properties": {
        "norad_id": 66662,
        "name": "2025-274N",
        "group": "last-30-days",
        "lat": -52.98922643702316,
        "lon": -66.29059786038863,
        "alt_km": 590.0917766582725,
        "timestamp": "2025-12-22T05:49:02.184800+00:00",
        "meta_object_name": "2025-274N",
        "meta_object_id": "2025-274N",
        "meta_epoch": "2025-12-21T18:47:57.458688",
        "meta_mean_motion": 14.93194848,
        "meta_eccentricity": 0.001373,
        "meta_inclination": 97.7407,
        "meta_ra_of_asc_node": 282.8625,
        "meta_arg_of_pericenter": 248.6058,
        "meta_mean_anomaly": 111.3697,
        "meta_ephemeris_type": 0,
        "meta_classification_type": "U",
        "meta_norad_cat_id": 66662,
        "meta_element_set_no": 999,
        "meta_rev_at_epoch": 375,
        "meta_bstar": 0.00015255,
        "meta_mean_motion_dot": 1.539e-05,
        "meta_mean_motion_ddot": 0,
        "tle_line1": "1 66662U 25274N   25355.78330392  .00001539  00000+0  15255-3 0  9999",
        "tle_line2": "2 66662  97.7407 282.8625 0013730 248.6058 111.3697 14.93194848  3756"
      },
      "geometry": {
        "type": "Point",
        "coordinates": [
          -66.29059786038863,
          -52.98922643702316
        ]
      }
    },
    {
      "type": "Feature",
      "properties": {
        "norad_id": 66663,
        "name": "KSLV-II R/B",
        "group": "last-30-days",
        "lat": -26.47292430769755,
        "lon": -72.61795847217188,
        "alt_km": 551.9903662803517,
        "timestamp": "2025-12-22T05:49:02.184810+00:00",
        "meta_object_name": "KSLV-II R/B",
        "meta_object_id": "2025-274P",
        "meta_epoch": "2025-12-21T18:42:36.614016",
        "meta_mean_motion": 14.97505525,
        "meta_eccentricity": 0.0059474,
        "meta_inclination": 97.7424,
        "meta_ra_of_asc_node": 283.0385,
        "meta_arg_of_pericenter": 287.9015,
        "meta_mean_anomaly": 71.5728,
        "meta_ephemeris_type": 0,
        "meta_classification_type": "U",
        "meta_norad_cat_id": 66663,
        "meta_element_set_no": 999,
        "meta_rev_at_epoch": 376,
        "meta_bstar": 0.0015742,
        "meta_mean_motion_dot": 0.00019004,
        "meta_mean_motion_ddot": 0,
        "tle_line1": "1 66663U 25274P   25355.77959044  .00019004  00000+0  15742-2 0  9996",
        "tle_line2": "2 66663  97.7424 283.0385 0059474 287.9015  71.5728 14.97505525  3761"
      },
      "geometry": {
        "type": "Point",
        "coordinates": [
          -72.61795847217188,
          -26.47292430769755
        ]
      }
    },
    {
      "type": "Feature",
      "properties": {
        "norad_id": 66664,
        "name": "SOYUZ-MS 28",
        "group": "last-30-days",
        "lat": 18.32003050951618,
        "lon": -99.7891447872565,
        "alt_km": 416.9420786654564,
        "timestamp": "2025-12-22T05:49:02.184820+00:00",
        "meta_object_name": "SOYUZ-MS 28",
        "meta_object_id": "2025-275A",
        "meta_epoch": "2025-12-21T13:40:08.668128",
        "meta_mean_motion": 15.49703708,
        "meta_eccentricity": 0.0003166,
        "meta_inclination": 51.6324,
        "meta_ra_of_asc_node": 98.7522,
        "meta_arg_of_pericenter": 281.5679,
        "meta_mean_anomaly": 78.4955,
        "meta_ephemeris_type": 0,
        "meta_classification_type": "U",
        "meta_norad_cat_id": 66664,
        "meta_element_set_no": 999,
        "meta_rev_at_epoch": 381,
        "meta_bstar": 0.00016837,
        "meta_mean_motion_dot": 9.066e-05,
        "meta_mean_motion_ddot": 0,
        "tle_line1": "1 66664U 25275A   25355.56954477  .00009066  00000+0  16837-3 0  9994",
        "tle_line2": "2 66664  51.6324  98.7522 0003166 281.5679  78.4955 15.49703708  3812"
      },
      "geometry": {
        "type": "Point",
        "coordinates": [
          -99.7891447872565,
          18.32003050951618
        ]
      }
    },
    {
      "type": "Feature",
      "properties": {
        "norad_id": 66666,
        "name": "FORMOSAT-8A",
        "group": "last-30-days",
        "lat": 53.81685236364352,
        "lon": 57.44623948793919,
        "alt_km": 562.7977762558212,
        "timestamp": "2025-12-22T05:49:02.184830+00:00",
        "meta_object_name": "FORMOSAT-8A",
        "meta_object_id": "2025-276A",
        "meta_epoch": "2025-12-21T16:46:11.354592",
        "meta_mean_motion": 15.00338159,
        "meta_eccentricity": 0.0003754,
        "meta_inclination": 97.658,
        "meta_ra_of_asc_node": 67.5112,
        "meta_arg_of_pericenter": 196.6595,
        "meta_mean_anomaly": 163.4506,
        "meta_ephemeris_type": 0,
        "meta_classification_type": "U",
        "meta_norad_cat_id": 66666,
        "meta_element_set_no": 999,
        "meta_rev_at_epoch": 343,
        "meta_bstar": 0.00035366,
        "meta_mean_motion_dot": 4.379e-05,
        "meta_mean_motion_ddot": 0,
        "tle_line1": "1 66666U 25276A   25355.69874253  .00004379  00000+0  35366-3 0  9994",
        "tle_line2": "2 66666  97.6580  67.5112 0003754 196.6595 163.4506 15.00338159  3439"
      },
      "geometry": {
        "type": "Point",
        "coordinates": [
          57.44623948793919,
          53.81685236364352
        ]
      }
    },
    {
      "type": "Feature",
      "properties": {
        "norad_id": 66667,
        "name": "PELICAN-5",
        "group": "last-30-days",
        "lat": 61.94251978534695,
        "lon": 53.65696824960962,
        "alt_km": 508.4026011762353,
        "timestamp": "2025-12-22T05:49:02.184840+00:00",
        "meta_object_name": "PELICAN-5",
        "meta_object_id": "2025-276B",
        "meta_epoch": "2025-12-21T16:52:53.137920",
        "meta_mean_motion": 15.17588736,
        "meta_eccentricity": 0.0002046,
        "meta_inclination": 97.4418,
        "meta_ra_of_asc_node": 67.3231,
        "meta_arg_of_pericenter": 220.7278,
        "meta_mean_anomaly": 139.3803,
        "meta_ephemeris_type": 0,
        "meta_classification_type": "U",
        "meta_norad_cat_id": 66667,
        "meta_element_set_no": 999,
        "meta_rev_at_epoch": 348,
        "meta_bstar": 0.00023949,
        "meta_mean_motion_dot": 4.746e-05,
        "meta_mean_motion_ddot": 0,
        "tle_line1": "1 66667U 25276B   25355.70339280  .00004746  00000+0  23949-3 0  9995",
        "tle_line2": "2 66667  97.4418  67.3231 0002046 220.7278 139.3803 15.17588736  3481"
      },
      "geometry": {
        "type": "Point",
        "coordinates": [
          53.65696824960962,
          61.94251978534695
        ]
      }
    },
    {
      "type": "Feature",
      "properties": {
        "norad_id": 66668,
        "name": "TRANSPORTER-15 C",
        "group": "last-30-days",
        "lat": -15.604966115304356,
        "lon": 69.86716077415865,
        "alt_km": 518.0178248429474,
        "timestamp": "2025-12-22T05:49:02.184850+00:00",
        "meta_object_name": "TRANSPORTER-15 C",
        "meta_object_id": "2025-276C",
        "meta_epoch": "2025-12-21T14:03:24.772032",
        "meta_mean_motion": 15.17102448,
        "meta_eccentricity": 0.0007719,
        "meta_inclination": 97.4279,
        "meta_ra_of_asc_node": 67.1353,
        "meta_arg_of_pericenter": 271.7156,
        "meta_mean_anomaly": 88.3193,
        "meta_ephemeris_type": 0,
        "meta_classification_type": "U",
        "meta_norad_cat_id": 66668,
        "meta_element_set_no": 999,
        "meta_rev_at_epoch": 346,
        "meta_bstar": 0.00084987,
        "meta_mean_motion_dot": 0.00016813,
        "meta_mean_motion_ddot": 0,
        "tle_line1": "1 66668U 25276C   25355.58570338  .00016813  00000+0  84987-3 0  9990",
        "tle_line2": "2 66668  97.4279  67.1353 0007719 271.7156  88.3193 15.17102448  3468"
      },
      "geometry": {
        "type": "Point",
        "coordinates": [
          69.86716077415865,
          -15.604966115304356
        ]
      }
    }
  ]
}